STARLINK-32608          
1 62124U 24222L   26068.18745894  .00034607  00000+0  12608-2 0  9993
2 62124  43.0006 138.8927 0001275 238.5627 121.5100 15.27590701 72664
TEVEL2-4                
1 63213U 25052D   26068.69417973  .00020990  00000+0  70363-3 0  9998
2 63213  97.4009 325.1237 0004733  95.3468 264.8313 15.30925813 54879
